[{"OBJECT_NAME":"FALCONSAT-6","OBJECT_ID":"2018-099BK","EPOCH":"2026-03-09T17:24:38.352096","MEAN_MOTION":15.26532865,"ECCENTRICITY":0.00143698,"INCLINATION":97.3865,"RA_OF_ASC_NODE":145.8165,"ARG_OF_PERICENTER":297.0944,"MEAN_ANOMALY":181.0714,"EPHEMERIS_TYPE":0,"CLASSIFICATION_TYPE":"U","NORAD_CAT_ID":43815,"ELEMENT_SET_NO":999,"REV_AT_EPOCH":39855,"BSTAR":0.00019476898,"MEAN_MOTION_DOT":5.029e-5,"MEAN_MOTION_DDOT":0},{"OBJECT_NAME":"STARLINK-31081","OBJECT_ID":"2023-203Q","EPOCH":"2026-03-09T01:16:45.570144","MEAN_MOTION":15.27566603,"ECCENTRICITY":0.00012103,"INCLINATION":43.0042,"RA_OF_ASC_NODE":74.1567,"ARG_OF_PERICENTER":279.3892,"MEAN_ANOMALY":80.6822,"EPHEMERIS_TYPE":0,"CLASSIFICATION_TYPE":"U","NORAD_CAT_ID":58632,"ELEMENT_SET_NO":999,"REV_AT_EPOCH":12465,"BSTAR":-3.8669687e-5,"MEAN_MOTION_DOT":-1.326e-5,"MEAN_MOTION_DDOT":0}]
